{
    "links": {
        "self": "http://www.neowsapp.com/rest/v1/neo/3781874?api_key=iIulBulltgU6a56xZRHN4H3l9WmuAYTsLGpBGhQ2"
    },
    "id": "3781874",
    "neo_reference_id": "3781874",
    "name": "(2017 SK14)",
    "designation": "2017 SK14",
    "nasa_jpl_url": "http://ssd.jpl.nasa.gov/sbdb.cgi?sstr=3781874",
    "absolute_magnitude_h": 25.7,
    "estimated_diameter": {
        "kilometers": {
            "estimated_diameter_min": 0.0192555078,
            "estimated_diameter_max": 0.0430566244
        },
        "meters": {
            "estimated_diameter_min": 19.2555078188,
            "estimated_diameter_max": 43.0566244241
        },
        "miles": {
            "estimated_diameter_min": 0.0119648141,
            "estimated_diameter_max": 0.0267541378
        },
        "feet": {
            "estimated_diameter_min": 63.1742402722,
            "estimated_diameter_max": 141.2618956756
        }
    },
    "is_potentially_hazardous_asteroid": false,
    "close_approach_data": [
        {
            "close_approach_date": "1905-12-08",
            "close_approach_date_full": "1905-Dec-08 10:45",
            "epoch_date_close_approach": -2021721300000,
            "relative_velocity": {
                "kilometers_per_second": "15.9106488344",
                "kilometers_per_hour": "57278.3358037036",
                "miles_per_hour": "35590.5303775846"
            },
            "miss_distance": {
                "astronomical": "0.1900541813",
                "lunar": "73.9310765257",
                "kilometers": "28431700.707073831",
                "miles": "17666639.6064116278"
            },
            "orbiting_body": "Earth"
        },
        {
            "close_approach_date": "2017-10-01",
            "close_approach_date_full": "2017-Oct-01 10:17",
            "epoch_date_close_approach": 1506853020000,
            "relative_velocity": {
                "kilometers_per_second": "8.2837706041",
                "kilometers_per_hour": "29821.5741745904",
                "miles_per_hour": "18529.9664642059"
            },
            "miss_distance": {
                "astronomical": "0.0490530657",
                "lunar": "19.0816425573",
                "kilometers": "7338234.145690059",
                "miles": "4559767.2589144542"
            },
            "orbiting_body": "Earth"
        },
        {
            "close_approach_date": "2152-02-22",
            "close_approach_date_full": "2152-Feb-22 12:02",
            "epoch_date_close_approach": 5747889720000,
            "relative_velocity": {
                "kilometers_per_second": "12.5722559078",
                "kilometers_per_hour": "45260.1212681351",
                "miles_per_hour": "28122.879240192"
            },
            "miss_distance": {
                "astronomical": "0.07515751",
                "lunar": "29.23627139",
                "kilometers": "11243403.4105037",
                "miles": "6986326.91900306"
            },
            "orbiting_body": "Mars"
        }
    ],
    "orbital_data": {
        "orbit_id": "5",
        "orbit_determination_date": "2018-02-10 07:09:10",
        "first_observation_date": "2017-09-17",
        "last_observation_date": "2017-10-01",
        "data_arc_in_days": 14,
        "observations_used": 31,
        "orbit_uncertainty": "8",
        "minimum_orbit_intersection": ".0290642",
        "jupiter_tisserand_invariant": "3.179",
        "epoch_osculation": "2458021.5",
        "eccentricity": ".5957692520347958",
        "semi_major_axis": "2.525909718600135",
        "inclination": "1.484584351476125",
        "ascending_node_longitude": "172.1214607956971",
        "orbital_period": "1466.307860429237",
        "perihelion_distance": "1.021050374842311",
        "perihelion_argument": "216.0360126720738",
        "aphelion_distance": "4.030769062357959",
        "perihelion_time": "2458043.393505499052",
        "mean_anomaly": "354.6248245730937",
        "mean_motion": ".2455146082996623",
        "equinox": "J2000",
        "orbit_class": {
            "orbit_class_type": "AMO",
            "orbit_class_description": "Near-Earth asteroid orbits similar to that of 1221 Amor",
            "orbit_class_range": "1.017 AU < q (perihelion) < 1.3 AU"
        }
    },
    "is_sentry_object": false
}